STARLINK-37082          
1 68182U 26050R   26083.41668981  .00054365  00000+0  27737-3 0  9991
2 68182  53.1602 207.9025 0000613  72.4984 338.1347 15.80863195  2808
STARLINK-37102          
1 68183U 26050S   26083.41668981  .00011674  00000+0  62601-4 0  9998
2 68183  53.1603 207.8937 0000991  80.0366 334.8739 15.80875327  2807
STARLINK-36964          
1 68184U 26050T   26083.41668981  .00026230  00000+0  13610-3 0  9998
2 68184  53.1603 207.8851 0000789 112.5715 306.6208 15.80861548  2805
STARLINK-37061          
1 68185U 26050U   26083.41668981  .00020103  00000+0  10516-3 0  9994
2 68185  53.1606 207.8763 0000661  59.1481   4.3083 15.80871473  2807
STARLINK-37079          
1 68186U 26050V   26083.41668981  .00053190  00000+0  27169-3 0  9999
2 68186  53.1607 207.8674 0000955  59.5178   8.2268 15.80847174  2802
STARLINK-37006          
1 68187U 26050W   26083.41668981  .00059876  00000+0  30527-3 0  9999
2 68187  53.1605 207.8588 0001026  93.9723 338.0510 15.80839306  2816
STARLINK-36340          
1 68188U 26050X   26083.41668981 -.00076501  00000+0 -38705-3 0  9992
2 68188  53.1602 207.8495 0001255  75.6920   0.5867 15.80896280  2642
STARLINK-36305          
1 68189U 26050Y   26083.41668981 -.00079105  00000+0 -39983-3 0  9995
2 68189  53.1604 207.8414 0001238  93.2550 347.2686 15.80930662  2702
STARLINK-37071          
1 68190U 26050Z   26083.41668981 -.00643380  00000+0 -34377-2 0  9990
2 68190  53.1602 207.8237 0001018  97.6298 351.2512 15.81293098  2819
STARLINK-37091          
1 68191U 26050AA  26083.41668981 -.00910951  00000+0 -49694-2 0  9990
2 68191  53.1601 207.8150 0001081  63.5525  29.4602 15.81520320  2813
STARLINK-37098          
1 68192U 26050AB  26083.41668981 -.01194735  00000+0 -65159-2 0  9990
2 68192  53.1602 207.8067 0000794  79.6502  17.4494 15.81796996  2815
STARLINK-37090          
1 68193U 26050AC  26083.41668981 -.01594614  00000+0 -86558-2 0  9997
2 68193  53.1605 207.7893 0000948  82.9356  22.3076 15.82255561  2810
