CCSDS_OMM_VERS = 2.0
CREATION_DATE  = 
ORIGINATOR     = 

OBJECT_NAME    = STARLINK-37082
OBJECT_ID      = 2026-050R
CENTER_NAME    = EARTH
REF_FRAME      = TEME
TIME_SYSTEM    = UTC
MEAN_ELEMENT_THEORY = SGP/SGP4

EPOCH          = 2026-03-24T10:00:01.999584
MEAN_MOTION    = 15.80863195
ECCENTRICITY   = .0000613
INCLINATION    = 53.1602
RA_OF_ASC_NODE = 207.9025
ARG_OF_PERICENTER = 72.4984
MEAN_ANOMALY   = 338.1347

EPHEMERIS_TYPE = 0
CLASSIFICATION_TYPE = U
NORAD_CAT_ID   = 68182
ELEMENT_SET_NO = 999
REV_AT_EPOCH   = 280
BSTAR          = .27737E-3
MEAN_MOTION_DOT = .54365E-3
MEAN_MOTION_DDOT = 0

CCSDS_OMM_VERS = 2.0
CREATION_DATE  = 
ORIGINATOR     = 

OBJECT_NAME    = STARLINK-37102
OBJECT_ID      = 2026-050S
CENTER_NAME    = EARTH
REF_FRAME      = TEME
TIME_SYSTEM    = UTC
MEAN_ELEMENT_THEORY = SGP/SGP4

EPOCH          = 2026-03-24T10:00:01.999584
MEAN_MOTION    = 15.80875327
ECCENTRICITY   = .0000991
INCLINATION    = 53.1603
RA_OF_ASC_NODE = 207.8937
ARG_OF_PERICENTER = 80.0366
MEAN_ANOMALY   = 334.8739

EPHEMERIS_TYPE = 0
CLASSIFICATION_TYPE = U
NORAD_CAT_ID   = 68183
ELEMENT_SET_NO = 999
REV_AT_EPOCH   = 280
BSTAR          = .62601E-4
MEAN_MOTION_DOT = .11674E-3
MEAN_MOTION_DDOT = 0

CCSDS_OMM_VERS = 2.0
CREATION_DATE  = 
ORIGINATOR     = 

OBJECT_NAME    = STARLINK-36964
OBJECT_ID      = 2026-050T
CENTER_NAME    = EARTH
REF_FRAME      = TEME
TIME_SYSTEM    = UTC
MEAN_ELEMENT_THEORY = SGP/SGP4

EPOCH          = 2026-03-24T10:00:01.999584
MEAN_MOTION    = 15.80861548
ECCENTRICITY   = .0000789
INCLINATION    = 53.1603
RA_OF_ASC_NODE = 207.8851
ARG_OF_PERICENTER = 112.5715
MEAN_ANOMALY   = 306.6208

EPHEMERIS_TYPE = 0
CLASSIFICATION_TYPE = U
NORAD_CAT_ID   = 68184
ELEMENT_SET_NO = 999
REV_AT_EPOCH   = 280
BSTAR          = .1361E-3
MEAN_MOTION_DOT = .2623E-3
MEAN_MOTION_DDOT = 0

CCSDS_OMM_VERS = 2.0
CREATION_DATE  = 
ORIGINATOR     = 

OBJECT_NAME    = STARLINK-37061
OBJECT_ID      = 2026-050U
CENTER_NAME    = EARTH
REF_FRAME      = TEME
TIME_SYSTEM    = UTC
MEAN_ELEMENT_THEORY = SGP/SGP4

EPOCH          = 2026-03-24T10:00:01.999584
MEAN_MOTION    = 15.80871473
ECCENTRICITY   = .0000661
INCLINATION    = 53.1606
RA_OF_ASC_NODE = 207.8763
ARG_OF_PERICENTER = 59.1481
MEAN_ANOMALY   = 4.3083

EPHEMERIS_TYPE = 0
CLASSIFICATION_TYPE = U
NORAD_CAT_ID   = 68185
ELEMENT_SET_NO = 999
REV_AT_EPOCH   = 280
BSTAR          = .10516E-3
MEAN_MOTION_DOT = .20103E-3
MEAN_MOTION_DDOT = 0

CCSDS_OMM_VERS = 2.0
CREATION_DATE  = 
ORIGINATOR     = 

OBJECT_NAME    = STARLINK-37079
OBJECT_ID      = 2026-050V
CENTER_NAME    = EARTH
REF_FRAME      = TEME
TIME_SYSTEM    = UTC
MEAN_ELEMENT_THEORY = SGP/SGP4

EPOCH          = 2026-03-24T10:00:01.999584
MEAN_MOTION    = 15.80847174
ECCENTRICITY   = .0000955
INCLINATION    = 53.1607
RA_OF_ASC_NODE = 207.8674
ARG_OF_PERICENTER = 59.5178
MEAN_ANOMALY   = 8.2268

EPHEMERIS_TYPE = 0
CLASSIFICATION_TYPE = U
NORAD_CAT_ID   = 68186
ELEMENT_SET_NO = 999
REV_AT_EPOCH   = 280
BSTAR          = .27169E-3
MEAN_MOTION_DOT = .5319E-3
MEAN_MOTION_DDOT = 0

CCSDS_OMM_VERS = 2.0
CREATION_DATE  = 
ORIGINATOR     = 

OBJECT_NAME    = STARLINK-37006
OBJECT_ID      = 2026-050W
CENTER_NAME    = EARTH
REF_FRAME      = TEME
TIME_SYSTEM    = UTC
MEAN_ELEMENT_THEORY = SGP/SGP4

EPOCH          = 2026-03-24T10:00:01.999584
MEAN_MOTION    = 15.80839306
ECCENTRICITY   = .0001026
INCLINATION    = 53.1605
RA_OF_ASC_NODE = 207.8588
ARG_OF_PERICENTER = 93.9723
MEAN_ANOMALY   = 338.0510

EPHEMERIS_TYPE = 0
CLASSIFICATION_TYPE = U
NORAD_CAT_ID   = 68187
ELEMENT_SET_NO = 999
REV_AT_EPOCH   = 281
BSTAR          = .30527E-3
MEAN_MOTION_DOT = .59876E-3
MEAN_MOTION_DDOT = 0

CCSDS_OMM_VERS = 2.0
CREATION_DATE  = 
ORIGINATOR     = 

OBJECT_NAME    = STARLINK-36340
OBJECT_ID      = 2026-050X
CENTER_NAME    = EARTH
REF_FRAME      = TEME
TIME_SYSTEM    = UTC
MEAN_ELEMENT_THEORY = SGP/SGP4

EPOCH          = 2026-03-24T10:00:01.999584
MEAN_MOTION    = 15.80896280
ECCENTRICITY   = .0001255
INCLINATION    = 53.1602
RA_OF_ASC_NODE = 207.8495
ARG_OF_PERICENTER = 75.6920
MEAN_ANOMALY   = 0.5867

EPHEMERIS_TYPE = 0
CLASSIFICATION_TYPE = U
NORAD_CAT_ID   = 68188
ELEMENT_SET_NO = 999
REV_AT_EPOCH   = 264
BSTAR          = -.38705E-3
MEAN_MOTION_DOT = -.76501E-3
MEAN_MOTION_DDOT = 0

CCSDS_OMM_VERS = 2.0
CREATION_DATE  = 
ORIGINATOR     = 

OBJECT_NAME    = STARLINK-36305
OBJECT_ID      = 2026-050Y
CENTER_NAME    = EARTH
REF_FRAME      = TEME
TIME_SYSTEM    = UTC
MEAN_ELEMENT_THEORY = SGP/SGP4

EPOCH          = 2026-03-24T10:00:01.999584
MEAN_MOTION    = 15.80930662
ECCENTRICITY   = .0001238
INCLINATION    = 53.1604
RA_OF_ASC_NODE = 207.8414
ARG_OF_PERICENTER = 93.2550
MEAN_ANOMALY   = 347.2686

EPHEMERIS_TYPE = 0
CLASSIFICATION_TYPE = U
NORAD_CAT_ID   = 68189
ELEMENT_SET_NO = 999
REV_AT_EPOCH   = 270
BSTAR          = -.39983E-3
MEAN_MOTION_DOT = -.79105E-3
MEAN_MOTION_DDOT = 0

CCSDS_OMM_VERS = 2.0
CREATION_DATE  = 
ORIGINATOR     = 

OBJECT_NAME    = STARLINK-37071
OBJECT_ID      = 2026-050Z
CENTER_NAME    = EARTH
REF_FRAME      = TEME
TIME_SYSTEM    = UTC
MEAN_ELEMENT_THEORY = SGP/SGP4

EPOCH          = 2026-03-24T10:00:01.999584
MEAN_MOTION    = 15.81293098
ECCENTRICITY   = .0001018
INCLINATION    = 53.1602
RA_OF_ASC_NODE = 207.8237
ARG_OF_PERICENTER = 97.6298
MEAN_ANOMALY   = 351.2512

EPHEMERIS_TYPE = 0
CLASSIFICATION_TYPE = U
NORAD_CAT_ID   = 68190
ELEMENT_SET_NO = 999
REV_AT_EPOCH   = 281
BSTAR          = -.34377E-2
MEAN_MOTION_DOT = -.64338E-2
MEAN_MOTION_DDOT = 0

CCSDS_OMM_VERS = 2.0
CREATION_DATE  = 
ORIGINATOR     = 

OBJECT_NAME    = STARLINK-37091
OBJECT_ID      = 2026-050AA
CENTER_NAME    = EARTH
REF_FRAME      = TEME
TIME_SYSTEM    = UTC
MEAN_ELEMENT_THEORY = SGP/SGP4

EPOCH          = 2026-03-24T10:00:01.999584
MEAN_MOTION    = 15.81520320
ECCENTRICITY   = .0001081
INCLINATION    = 53.1601
RA_OF_ASC_NODE = 207.8150
ARG_OF_PERICENTER = 63.5525
MEAN_ANOMALY   = 29.4602

EPHEMERIS_TYPE = 0
CLASSIFICATION_TYPE = U
NORAD_CAT_ID   = 68191
ELEMENT_SET_NO = 999
REV_AT_EPOCH   = 281
BSTAR          = -.49694E-2
MEAN_MOTION_DOT = -.910951E-2
MEAN_MOTION_DDOT = 0

CCSDS_OMM_VERS = 2.0
CREATION_DATE  = 
ORIGINATOR     = 

OBJECT_NAME    = STARLINK-37098
OBJECT_ID      = 2026-050AB
CENTER_NAME    = EARTH
REF_FRAME      = TEME
TIME_SYSTEM    = UTC
MEAN_ELEMENT_THEORY = SGP/SGP4

EPOCH          = 2026-03-24T10:00:01.999584
MEAN_MOTION    = 15.81796996
ECCENTRICITY   = .0000794
INCLINATION    = 53.1602
RA_OF_ASC_NODE = 207.8067
ARG_OF_PERICENTER = 79.6502
MEAN_ANOMALY   = 17.4494

EPHEMERIS_TYPE = 0
CLASSIFICATION_TYPE = U
NORAD_CAT_ID   = 68192
ELEMENT_SET_NO = 999
REV_AT_EPOCH   = 281
BSTAR          = -.65159E-2
MEAN_MOTION_DOT = -.1194735E-1
MEAN_MOTION_DDOT = 0

CCSDS_OMM_VERS = 2.0
CREATION_DATE  = 
ORIGINATOR     = 

OBJECT_NAME    = STARLINK-37090
OBJECT_ID      = 2026-050AC
CENTER_NAME    = EARTH
REF_FRAME      = TEME
TIME_SYSTEM    = UTC
MEAN_ELEMENT_THEORY = SGP/SGP4

EPOCH          = 2026-03-24T10:00:01.999584
MEAN_MOTION    = 15.82255561
ECCENTRICITY   = .0000948
INCLINATION    = 53.1605
RA_OF_ASC_NODE = 207.7893
ARG_OF_PERICENTER = 82.9356
MEAN_ANOMALY   = 22.3076

EPHEMERIS_TYPE = 0
CLASSIFICATION_TYPE = U
NORAD_CAT_ID   = 68193
ELEMENT_SET_NO = 999
REV_AT_EPOCH   = 281
BSTAR          = -.86558E-2
MEAN_MOTION_DOT = -.1594614E-1
MEAN_MOTION_DDOT = 0

